[{"OBJECT_NAME":"TIANMU-1 19","OBJECT_ID":"2023-208A","EPOCH":"2026-03-09T22:13:36.801696","MEAN_MOTION":15.2984143,"ECCENTRICITY":0.00039292,"INCLINATION":97.4383,"RA_OF_ASC_NODE":184.9132,"ARG_OF_PERICENTER":316.2611,"MEAN_ANOMALY":43.8317,"EPHEMERIS_TYPE":0,"CLASSIFICATION_TYPE":"U","NORAD_CAT_ID":58660,"ELEMENT_SET_NO":999,"REV_AT_EPOCH":12214,"BSTAR":0.00040995676,"MEAN_MOTION_DOT":0.00011779,"MEAN_MOTION_DDOT":0},{"OBJECT_NAME":"STARLINK-31960","OBJECT_ID":"2024-106K","EPOCH":"2026-03-09T02:07:36.088032","MEAN_MOTION":15.2757336,"ECCENTRICITY":8.434e-5,"INCLINATION":42.9992,"RA_OF_ASC_NODE":335.6842,"ARG_OF_PERICENTER":285.8018,"MEAN_ANOMALY":74.274,"EPHEMERIS_TYPE":0,"CLASSIFICATION_TYPE":"U","NORAD_CAT_ID":59931,"ELEMENT_SET_NO":999,"REV_AT_EPOCH":10043,"BSTAR":-0.00012579596,"MEAN_MOTION_DOT":-3.721e-5,"MEAN_MOTION_DDOT":0}]
